221P/LINEAR,e,11.5015,229.5777,39.7790,3.447384,0.1539818,0.49707892,107.0880,11/15.0/2023,2000,g 14.5,4.0
# From MPC 92277
222P/LINEAR,e,5.0963,6.7880,346.2781,2.897829,0.1997998,0.71471673,324.0582,11/15.0/2023,2000,g 20.0,4.0
# From MPEC 2023-A50
223P/Skiff,e,27.0159,346.7524,37.9099,4.158314,0.1162327,0.41659178,203.4385,11/15.0/2023,2000,g 12.0,4.0
# From MPEC 2023-BF4
224P/LINEAR-NEAT,e,13.3058,40.0368,16.7243,3.444765,0.1541575,0.40589275,63.3457,11/15.0/2023,2000,g 15.5,4.0
# From MPEC 2023-UR6
225P/LINEAR,e,21.3659,14.2033,3.9061,3.648563,0.1414234,0.63854818,13.9956,11/15.0/2023,2000,g 18.0,4.0
# From MPEC 2023-VM5
226P/Pigott-LINEAR-Kowalski,e,44.0454,54.0126,341.0714,3.767450,0.1347823,0.52919330,354.3080,11/15.0/2023,2000,g 12.5,4.0
# From MPEC 2023-VM5
227P/Catalina-LINEAR,e,7.5088,36.8104,105.5560,3.436337,0.1547250,0.52749483,342.3258,11/15.0/2023,2000,g 16.5,2.0
# From MPEC 2022-HC2
228P/LINEAR,e,7.9132,30.9821,114.7554,4.165150,0.1159466,0.17661938,156.2115,11/15.0/2023,2000,g 14.1,4.0
# From MPC106349
229P/Gibbs,e,26.0980,157.9395,224.0943,3.924632,0.1267668,0.37799642,299.5826,11/15.0/2023,2000,g 13.0,4.0
# From MPEC 2023-KD6
230P/LINEAR,e,15.4682,106.9580,313.5007,3.453682,0.1535609,0.54567859,92.9838,11/15.0/2023,2000,g 13.0,4.0
# From MPEC 2023-SQ0
231P/LINEAR-NEAT,e,12.2789,132.9005,44.1348,4.052406,0.1208188,0.24125222,195.6224,11/15.0/2023,2000,g 14.5,2.0
# From MPC112394
232P/Hill,e,14.6444,56.0302,53.2091,4.473182,0.1041788,0.33534878,175.3749,11/15.0/2023,2000,g 11.5,4.0
# From MPEC 2021-N06
233P/La Sagra,e,11.2888,74.9005,26.9766,3.027659,0.1870870,0.41258947,213.0843,11/15.0/2023,2000,g 15.0,4.0
# From MPEC 2022-K19
234P/LINEAR,e,11.5355,179.5669,357.4007,3.795619,0.1332846,0.25673035,314.2135,11/15.0/2023,2000,g 12.0,4.0
# From MPC110497
235P/LINEAR,e,9.9571,204.7251,345.9445,3.530123,0.1486002,0.41247758,243.9952,11/15.0/2023,2000,g 12.0,4.0
# From MPEC 2023-J29
236P/LINEAR,e,16.3549,245.5689,119.3821,3.726614,0.1370037,0.50937659,298.7988,11/15.0/2023,2000,g 14.0,4.0
# From MPEC 2023-VM5
237P/LINEAR,e,14.0166,245.3593,25.2691,3.510108,0.1498730,0.43388839,27.6227,11/15.0/2023,2000,g 14.5,2.0
# From MPEC 2023-UR6
238P/Read,e,1.2640,51.6286,324.2253,3.165612,0.1749918,0.25128633,92.3252,11/15.0/2023,2000,g 14.5,4.0
# From MPEC 2021-F20
239P/LINEAR,e,11.3073,255.9440,220.3427,4.466212,0.1044227,0.63083400,184.8618,11/15.0/2023,2000,g 17.5,2.0
# From MPEC 2023-CD7
240P/NEAT,e,23.5361,74.9144,351.9872,3.862723,0.1298266,0.45021037,260.5670,11/15.0/2023,2000,g 11.0,4.0
# From MPEC 2022-J42
241P/LINEAR,e,21.0972,305.4821,111.4833,4.923860,0.0902081,0.61047596,75.9435,11/15.0/2023,2000,g 13.5,4.0
# From MPEC 2023-VM5
242P/Spahr,e,32.4820,180.3771,244.9495,5.522126,0.0759529,0.28087363,329.2312,11/15.0/2023,2000,g  8.0,4.0
# From MPEC 2022-K19
243P/NEAT,e,7.6429,87.6522,283.6384,3.828920,0.1315496,0.36063756,250.4012,11/15.0/2023,2000,g 12.5,4.0
# From MPEC 2023-VM5
244P/Scotti,e,2.2591,354.0037,93.2183,4.899180,0.0908906,0.19968647,32.8886,11/15.0/2023,2000,g  9.0,4.0
# From MPEC 2022-CN4
245P/WISE,e,21.1799,316.8893,316.5865,4.049214,0.1209617,0.45575358,255.0732,11/15.0/2023,2000,g 14.0,4.0
# From MPEC 2023-VM5
246P/NEAT,e,16.4488,76.2555,180.2336,4.056328,0.1206437,0.28959231,119.1579,11/15.0/2023,2000,g 10.5,4.0
# From MPEC 2021-F20
247P/LINEAR,e,13.6594,54.0132,47.4268,3.966297,0.1247746,0.62514019,225.7210,11/15.0/2023,2000,g 16.5,2.0
# From MPC 75730
248P/Gibbs,e,6.3513,207.8229,209.9018,5.987143,0.0672782,0.63933647,314.9341,11/15.0/2023,2000,g 14.0,4.0
# From MPEC 2022-YN2
249P/LINEAR,e,8.3854,239.0491,65.7565,2.764143,0.2144684,0.81944169,264.6297,11/15.0/2023,2000,g 15.5,4.0
# From MPC110497
250P/Larson,e,13.1549,73.3008,46.0062,3.772566,0.1345082,0.39870809,286.0898,11/15.0/2023,2000,g 14.5,4.0
# From MPC104795
251P/LINEAR,e,23.3873,219.3230,31.2452,3.513906,0.1496301,0.50446358,346.4971,11/15.0/2023,2000,g 16.5,2.0
# From MPEC 2021-S45
252P/LINEAR,e,10.4149,190.9098,343.3936,3.051249,0.1849216,0.67084008,158.5606,11/15.0/2023,2000,g 17.5,4.0
# From MPEC 2020-FB5
253P/PANSTARRS,e,4.9451,146.9114,230.7400,3.462842,0.1529519,0.41461392,307.8561,11/15.0/2023,2000,g 14.5,4.0
# From MPEC 2023-FK0
254P/McNaught,e,32.5551,129.1880,219.7248,4.617675,0.0993274,0.31930413,113.3073,11/15.0/2023,2000,g 11.0,4.0
# From NK 2214
255P/Levy,e,13.3978,275.6412,186.0299,2.942434,0.1952738,0.71176352,84.6273,11/15.0/2023,2000,g  9.0,4.0
# From MPEC 2023_O39
256P/LINEAR,e,27.6224,81.3271,124.1665,4.638462,0.0986604,0.41789096,24.4550,11/15.0/2023,2000,g 14.0,2.0
# From MPEC 2023-A50
257P/Catalina,e,20.2198,207.7125,117.7886,3.765635,0.1348797,0.42951877,156.5732,11/15.0/2023,2000,g 11.5,4.0
# From MPEC 2021-U31
258P/PANSTARRS,e,6.7487,126.2322,25.6424,4.391968,0.1070817,0.20874687,133.4193,11/15.0/2023,2000,g 13.0,4.0
# From MPC106349
259P/Garradd,e,15.8984,51.3709,257.5629,2.728872,0.2186399,0.33883547,141.0177,11/15.0/2023,2000,g 15.5,4.0
# From MPEC 2022-O01
260P/McNaught,e,15.0535,349.3450,18.4579,3.623371,0.1429009,0.60923068,218.0257,11/15.0/2023,2000,g 13.5,4.0
# From MPEC 2021-J28
261P/Larson,e,6.0718,291.0767,67.3281,3.490385,0.1511451,0.42318012,243.1488,11/15.0/2023,2000,g 14.0,4.0
# From MPC 82322
262P/McNaught-Russell,e,29.2796,217.8886,171.0532,6.870175,0.0547334,0.81640856,218.5331,11/15.0/2023,2000,g 13.5,4.0
# From MPEC 2023_O39
263P/Gibbs,e,11.5228,105.5027,35.0396,3.041577,0.1858043,0.59361723,53.5877,11/15.0/2023,2000,g 18.0,4.0
# From MPC114608
264P/Larsen,e,26.0628,219.6470,344.3446,3.922733,0.1268589,0.36582662,206.5505,11/15.0/2023,2000,g 13.0,4.0
# From MPC 79870
265P/LINEAR,e,14.3591,342.9537,33.4963,4.258285,0.1121636,0.64746442,113.1440,11/15.0/2023,2000,g 14.5,4.0
# From MPEC 2021-F20
266P/Christensen,e,3.4270,4.9754,97.6809,3.530110,0.1486010,0.34041100,193.7889,11/15.0/2023,2000,g 14.7,4.0
# From MPC114608
267P/LONEOS,e,6.1430,228.6032,114.2236,3.209415,0.1714215,0.61426504,332.2633,11/15.0/2023,2000,g 19.5,4.0
# From MPC 92277
268P/Bernardi,e,15.6273,124.8939,359.8871,4.636687,0.0987171,0.47350599,320.6432,11/15.0/2023,2000,g 14.0,4.0
# From MPEC 2023-J29
269P/Jedicke,e,7.0839,241.7678,225.6596,7.064202,0.0524940,0.43245639,174.8172,11/15.0/2023,2000,g 10.0,4.0
# From MPC 88332
270P/Gehrels,e,2.9250,223.0348,209.8093,6.654684,0.0574134,0.46974240,218.4178,11/15.0/2023,2000,g  8.0,4.0
# From MPC 92277
271P/van Houten-Lemmon,e,6.8718,9.3369,36.4635,7.033553,0.0528375,0.39612726,199.0403,11/15.0/2023,2000,g 11.0,4.0
# From MPEC 2023-D41
272P/NEAT,e,18.0746,109.4509,27.8845,4.461752,0.1045793,0.45503949,50.8226,11/15.0/2023,2000,g 16.0,2.0
# From MPC 82723
273P/Pons-Gambart,e,36.6460,320.4116,20.3434,32.03569,0.0054357,0.97410743,0.0000,12/20.4341/2012,2000,g 11.5,4.0
# From MPEC 2023-M14
274P/Tombaugh-Tenagra,e,15.8182,81.3204,38.4693,4.377700,0.1076057,0.43981875,62.9992,11/15.0/2023,2000,g 13.9,4.0
# From MPC 81862
275P/Hermann,e,21.2624,348.6991,173.9409,5.786160,0.0708139,0.71321421,283.6045,11/15.0/2023,2000,g 17.0,4.0
# From MPEC 2023-VM5
276P/Vorobjov,e,14.8126,211.3394,199.3910,5.331743,0.0800572,0.26882756,328.5514,11/15.0/2023,2000,g 11.5,4.0
# From MPEC 2021-F20
277P/LINEAR,e,16.7847,276.2790,152.3706,3.853467,0.1302946,0.50639427,136.7074,11/15.0/2023,2000,g 15.1,4.0
# From MPEC 2021-S45
278P/McNaught,e,6.6872,15.3082,237.4700,3.675356,0.1398798,0.43880326,162.0921,11/15.0/2023,2000,g 14.0,4.0
# From MPEC 2023-VM5
279P/LaSagra,e,5.0492,346.1980,5.8264,3.575745,0.1457653,0.39940931,30.5485,11/15.0/2023,2000,g 14.0,4.0
# From MPEC 2023-J95
280P/Larsen,e,11.7724,131.3778,104.7316,4.528595,0.1022725,0.41700899,10.4645,11/15.0/2023,2000,g 12.5,4.0
# From MPEC 2023-D41
281P/MOSS,e,4.7177,87.1726,26.7064,4.880906,0.0914015,0.17339161,26.1498,11/15.0/2023,2000,g 11.0,4.0
# From MPC133426
282P/,e,5.8118,217.6213,9.2564,4.237299,0.1129979,0.18778853,84.9615,11/15.0/2023,2000,g 13.5,2.0
# From MPEC 2022-K19
283P/Spacewatch,e,14.4577,161.1233,22.1863,4.134035,0.1172581,0.48437002,93.6058,11/15.0/2023,2000,g 16.0,2.0
# From MPEC 2023-D41
284P/McNaught,e,11.8590,144.2677,202.4659,3.677090,0.1397809,0.37505930,110.9236,11/15.0/2023,2000,g 13.0,4.0
# From MPEC 2023-B57
285P/LINEAR,e,25.0374,185.5031,178.3917,4.506897,0.1030119,0.61854648,31.6045,11/15.0/2023,2000,g 15.0,4.0
# From MPEC 2022-X67
286P/Christensen,e,17.0699,283.7151,24.8362,4.108174,0.1183670,0.42659813,65.3122,11/15.0/2023,2000,g 14.0,4.0
# From MPEC 2023-VM5
287P/Christensen,e,16.3198,139.0395,189.1846,4.165332,0.1159390,0.27152604,15.2637,11/15.0/2023,2000,g 13.5,4.0
# From MPC133426
288P/,e,3.2383,83.1077,280.2661,3.048676,0.1851558,0.20031304,115.4124,11/15.0/2023,2000,g 16.0,2.0
# From MPEC 2023-HD1
289P/Blanpain,e,5.9003,68.8922,9.8496,3.044781,0.1855111,0.68632724,264.2115,11/15.0/2023,2000,g 19.7,4.0
# From MPC 95214
290P/Jager,e,20.0529,302.6816,181.8188,6.216312,0.0635924,0.62770819,227.9125,11/15.0/2023,2000,g 10.5,4.0
# From MPEC 2023-VM5
291P/NEAT,e,6.3097,237.6599,173.5076,4.534573,0.1020703,0.43428759,19.8996,11/15.0/2023,2000,g 13.0,4.0
# From MPEC 2022-K19
292P/Li,e,24.3091,90.9058,319.5894,6.099507,0.0654277,0.58995138,233.4201,11/15.0/2023,2000,g 12.5,4.0
# From MPEC 2022-L66
293P/Spacewatch,e,9.0610,78.3648,40.9515,3.639609,0.1419456,0.41885724,150.5445,11/15.0/2023,2000,g 14.5,4.0
# From MPEC 2020-SI8
294P/LINEAR,e,18.1560,311.7709,235.5245,3.191463,0.1728699,0.60168455,250.1836,11/15.0/2023,2000,g 15.5,4.0
# From MPEC 2022-K19
295P/LINEAR,e,21.0757,7.4184,72.9349,5.303298,0.0807021,0.61744975,280.8488,11/15.0/2023,2000,g 12.0,4.0
# From MPEC 2021-N06
296P/Garradd,e,25.2786,263.5265,349.9280,3.489597,0.1511963,0.47956011,174.4347,11/15.0/2023,2000,g 14.0,4.0
# From MPC102956
297P/Beshore,e,10.4019,95.8885,136.6942,3.487631,0.1513242,0.31894645,153.6725,11/15.0/2023,2000,g 15.0,4.0
# From MPC114609
298P/Christensen,e,7.8706,52.8125,100.5961,3.589554,0.1449250,0.38632044,168.8912,11/15.0/2023,2000,g 15.0,4.0
# From MPEC 2023-OA6
